[{"OBJECT_NAME":"STARLINK-1800","OBJECT_ID":"2020-073AG","EPOCH":"2026-03-10T00:00:02.999808","MEAN_MOTION":15.79776144,"ECCENTRICITY":0.00048232,"INCLINATION":53.0392,"RA_OF_ASC_NODE":207.8023,"ARG_OF_PERICENTER":307.6463,"MEAN_ANOMALY":354.6539,"EPHEMERIS_TYPE":0,"CLASSIFICATION_TYPE":"U","NORAD_CAT_ID":46700,"ELEMENT_SET_NO":999,"REV_AT_EPOCH":598,"BSTAR":0.001050296,"MEAN_MOTION_DOT":0.00201242,"MEAN_MOTION_DDOT":0},{"OBJECT_NAME":"STARLINK-31304","OBJECT_ID":"2024-049A","EPOCH":"2026-03-09T22:00:01.999584","MEAN_MOTION":15.83676704,"ECCENTRICITY":0.00242928,"INCLINATION":42.9839,"RA_OF_ASC_NODE":111.8316,"ARG_OF_PERICENTER":80.055,"MEAN_ANOMALY":143.517,"EPHEMERIS_TYPE":0,"CLASSIFICATION_TYPE":"U","NORAD_CAT_ID":59231,"ELEMENT_SET_NO":999,"REV_AT_EPOCH":589,"BSTAR":0.0011658294,"MEAN_MOTION_DOT":0.00279367,"MEAN_MOTION_DDOT":0}]
